*******************************************************************************
Ephemeris / WWW_USER Tue Mar 27 22:26:39 2018 Pasadena, USA      / Horizons    
*******************************************************************************
Target body name: Uranus Barycenter (7)           {source: DE431mx}
Center body name: Solar System Barycenter (0)     {source: DE431mx}
Center-site name: BODY CENTER
*******************************************************************************
Start time      : A.D. 2018-Feb-08 00:00:00.0000 TDB
Stop  time      : A.D. 2019-Feb-08 00:00:00.0000 TDB
Step-size       : 7200 minutes
*******************************************************************************
Center geodetic : 0.00000000,0.00000000,0.0000000 {E-lon(deg),Lat(deg),Alt(km)}
Center cylindric: 0.00000000,0.00000000,0.0000000 {E-lon(deg),Dxy(km),Dz(km)}
Center radii    : (undefined)                                                  
Output units    : AU-D                                                         
Output type     : GEOMETRIC cartesian states
Output format   : 2 (position and velocity)
Reference frame : ICRF/J2000.0                                                 
Coordinate systm: Ecliptic and Mean Equinox of Reference Epoch                 
*******************************************************************************
JDTDB
   X     Y     Z
   VX    VY    VZ
*******************************************************************************
$$SOE
2458157.500000000 = A.D. 2018-Feb-08 00:00:00.0000 TDB 
   1.765366587122240E+01  9.188858060195328E+00 -1.945782455950202E-01
  -1.844763432724966E-03  3.305448424367923E-03  3.617698121416077E-05
2458162.500000000 = A.D. 2018-Feb-13 00:00:00.0000 TDB 
   1.764443376249625E+01  9.205380984316269E+00 -1.943972693376572E-01
  -1.848079814570537E-03  3.303720683163689E-03  3.621351657784608E-05
2458167.500000000 = A.D. 2018-Feb-18 00:00:00.0000 TDB 
   1.763518507551093E+01  9.221895261619284E+00 -1.942161104808064E-01
  -1.851394735877298E-03  3.301989697350395E-03  3.625002100317519E-05
2458172.500000000 = A.D. 2018-Feb-23 00:00:00.0000 TDB 
   1.762591981757679E+01  9.238400875883624E+00 -1.940347691792486E-01
  -1.854708193592449E-03  3.300255467847184E-03  3.628649445453928E-05
2458177.500000000 = A.D. 2018-Feb-28 00:00:00.0000 TDB 
   1.761663799601942E+01  9.254897810893143E+00 -1.938532455879435E-01
  -1.858020184662318E-03  3.298517995575984E-03  3.632293689626825E-05
2458182.500000000 = A.D. 2018-Mar-05 00:00:00.0000 TDB 
   1.760733961817967E+01  9.271386050436311E+00 -1.936715398620283E-01
  -1.861330706032214E-03  3.296777281460945E-03  3.635934829270327E-05
2458187.500000000 = A.D. 2018-Mar-10 00:00:00.0000 TDB 
   1.759802469141369E+01  9.287865578306224E+00 -1.934896521568183E-01
  -1.864639754646427E-03  3.295033326428424E-03  3.639572860819652E-05
2458192.500000000 = A.D. 2018-Mar-15 00:00:00.0000 TDB 
   1.758869322309289E+01  9.304336378300611E+00 -1.933075826278063E-01
  -1.867947327448234E-03  3.293286131406994E-03  3.643207780711279E-05
2458197.500000000 = A.D. 2018-Mar-20 00:00:00.0000 TDB 
   1.757934522060398E+01  9.320798434221860E+00 -1.931253314306664E-01
  -1.871253421380357E-03  3.291535697327035E-03  3.646839585368962E-05
2458202.500000000 = A.D. 2018-Mar-25 00:00:00.0000 TDB 
   1.756998069134896E+01  9.337251729877005E+00 -1.929428987212500E-01
  -1.874558033385656E-03  3.289782025120826E-03  3.650468271223459E-05
2458207.500000000 = A.D. 2018-Mar-30 00:00:00.0000 TDB 
   1.756059964274510E+01  9.353696249077750E+00 -1.927602846555835E-01
  -1.877861160406661E-03  3.288025115722736E-03  3.654093834702526E-05
2458212.500000000 = A.D. 2018-Apr-04 00:00:00.0000 TDB 
   1.755120208222497E+01  9.370131975640474E+00 -1.925774893898785E-01
  -1.881162799385690E-03  3.286264970068897E-03  3.657716272234098E-05
2458217.500000000 = A.D. 2018-Apr-09 00:00:00.0000 TDB 
   1.754178801723641E+01  9.386558893386242E+00 -1.923945130805196E-01
  -1.884462947264843E-03  3.284501589097209E-03  3.661335580246599E-05
2458222.500000000 = A.D. 2018-Apr-14 00:00:00.0000 TDB 
   1.753235745524258E+01  9.402976986140816E+00 -1.922113558840717E-01
  -1.887761600986012E-03  3.282734973747336E-03  3.664951755168427E-05
2458227.500000000 = A.D. 2018-Apr-19 00:00:00.0000 TDB 
   1.752291040372191E+01  9.419386237734653E+00 -1.920280179572800E-01
  -1.891058757491680E-03  3.280965124960835E-03  3.668564793422362E-05
2458232.500000000 = A.D. 2018-Apr-24 00:00:00.0000 TDB 
   1.751344687016812E+01  9.435786632002934E+00 -1.918444994570673E-01
  -1.894354413725838E-03  3.279192043681197E-03  3.672174691427671E-05
2458237.500000000 = A.D. 2018-Apr-29 00:00:00.0000 TDB 
   1.750396686209020E+01  9.452178152785551E+00 -1.916608005405345E-01
  -1.897648566631805E-03  3.277415730853719E-03  3.675781445611444E-05
2458242.500000000 = A.D. 2018-May-04 00:00:00.0000 TDB 
   1.749447038701244E+01  9.468560783927137E+00 -1.914769213649626E-01
  -1.900941213153442E-03  3.275636187426083E-03  3.679385052399922E-05
2458247.500000000 = A.D. 2018-May-09 00:00:00.0000 TDB 
   1.748495745247440E+01  9.484934509277064E+00 -1.912928620878111E-01
  -1.904232350235093E-03  3.273853414348353E-03  3.682985508220249E-05
2458252.500000000 = A.D. 2018-May-14 00:00:00.0000 TDB 
   1.747542806603091E+01  9.501299312689460E+00 -1.911086228667164E-01
  -1.907521974821577E-03  3.272067412572984E-03  3.686582809500435E-05
2458257.500000000 = A.D. 2018-May-19 00:00:00.0000 TDB 
   1.746588223525210E+01  9.517655178023221E+00 -1.909242038594959E-01
  -1.910810083858046E-03  3.270278183054832E-03  3.690176952671290E-05
2458262.500000000 = A.D. 2018-May-24 00:00:00.0000 TDB 
   1.745631996772335E+01  9.534002089142032E+00 -1.907396052241437E-01
  -1.914096674289039E-03  3.268485726751373E-03  3.693767934179114E-05
2458267.500000000 = A.D. 2018-May-29 00:00:00.0000 TDB 
   1.744674127104531E+01  9.550340029914359E+00 -1.905548271188313E-01
  -1.917381743059181E-03  3.266690044622825E-03  3.697355750463255E-05
2458272.500000000 = A.D. 2018-Jun-03 00:00:00.0000 TDB 
   1.743714615283395E+01  9.566668984213489E+00 -1.903698697019107E-01
  -1.920665287112409E-03  3.264891137631796E-03  3.700940397965988E-05
2458277.500000000 = A.D. 2018-Jun-08 00:00:00.0000 TDB 
   1.742753462072048E+01  9.582988935917514E+00 -1.901847331319073E-01
  -1.923947303392592E-03  3.263089006743173E-03  3.704521873129098E-05
2458282.500000000 = A.D. 2018-Jun-13 00:00:00.0000 TDB 
   1.741790668235140E+01  9.599299868909370E+00 -1.899994175675288E-01
  -1.927227788843525E-03  3.261283652924110E-03  3.708100172394115E-05
2458287.500000000 = A.D. 2018-Jun-18 00:00:00.0000 TDB 
   1.740826234538852E+01  9.615601767076821E+00 -1.898139231676587E-01
  -1.930506740408935E-03  3.259475077144041E-03  3.711675292202337E-05
2458292.500000000 = A.D. 2018-Jun-23 00:00:00.0000 TDB 
   1.739860161750888E+01  9.631894614312495E+00 -1.896282500913594E-01
  -1.933784155032192E-03  3.257663280374563E-03  3.715247229001809E-05
2458297.500000000 = A.D. 2018-Jun-28 00:00:00.0000 TDB 
   1.738892450640486E+01  9.648178394513875E+00 -1.894423984978688E-01
  -1.937060029656617E-03  3.255848263589556E-03  3.718815979252193E-05
2458302.500000000 = A.D. 2018-Jul-03 00:00:00.0000 TDB 
   1.737923101978408E+01  9.664453091583326E+00 -1.892563685466027E-01
  -1.940334361225100E-03  3.254030027765480E-03  3.722381539396123E-05
2458307.500000000 = A.D. 2018-Jul-08 00:00:00.0000 TDB 
   1.736952116536946E+01  9.680718689428096E+00 -1.890701603971566E-01
  -1.943607146680413E-03  3.252208573880645E-03  3.725943905879152E-05
2458312.500000000 = A.D. 2018-Jul-13 00:00:00.0000 TDB 
   1.735979495089923E+01  9.696975171960331E+00 -1.888837742093015E-01
  -1.946878382965264E-03  3.250383902915187E-03  3.729503075150661E-05
2458317.500000000 = A.D. 2018-Jul-18 00:00:00.0000 TDB 
   1.735005238412686E+01  9.713222523097084E+00 -1.886972101429872E-01
  -1.950148067022307E-03  3.248556015851068E-03  3.733059043663925E-05
2458322.500000000 = A.D. 2018-Jul-23 00:00:00.0000 TDB 
   1.734029347282114E+01  9.729460726760314E+00 -1.885104683583398E-01
  -1.953416195794436E-03  3.246724913672176E-03  3.736611807869195E-05
2458327.500000000 = A.D. 2018-Jul-28 00:00:00.0000 TDB 
   1.733051822476615E+01  9.745689766876923E+00 -1.883235490156642E-01
  -1.956682766226259E-03  3.244890597365117E-03  3.740161364194739E-05
2458332.500000000 = A.D. 2018-Aug-02 00:00:00.0000 TDB 
   1.732072664776121E+01  9.761909627378731E+00 -1.881364522754438E-01
  -1.959947775261767E-03  3.243053067917726E-03  3.743707709089730E-05
2458337.500000000 = A.D. 2018-Aug-07 00:00:00.0000 TDB 
   1.731091874962095E+01  9.778120292202518E+00 -1.879491782983384E-01
  -1.963211219845431E-03  3.241212326320022E-03  3.747250839001597E-05
2458342.500000000 = A.D. 2018-Aug-12 00:00:00.0000 TDB 
   1.730109453817527E+01  9.794321745290004E+00 -1.877617272451862E-01
  -1.966473096922413E-03  3.239368373564515E-03  3.750790750376511E-05
2458347.500000000 = A.D. 2018-Aug-17 00:00:00.0000 TDB 
   1.729125402126933E+01  9.810513970587891E+00 -1.875740992770024E-01
  -1.969733403438556E-03  3.237521210646198E-03  3.754327439659388E-05
2458352.500000000 = A.D. 2018-Aug-22 00:00:00.0000 TDB 
   1.728139720676357E+01  9.826696952047856E+00 -1.873862945549813E-01
  -1.972992136340389E-03  3.235670838562553E-03  3.757860903293706E-05
2458357.500000000 = A.D. 2018-Aug-27 00:00:00.0000 TDB 
   1.727152410253370E+01  9.842870673626575E+00 -1.871983132404931E-01
  -1.976249292573828E-03  3.233817258313714E-03  3.761391137733204E-05
2458362.500000000 = A.D. 2018-Sep-01 00:00:00.0000 TDB 
   1.726163471647070E+01  9.859035119285723E+00 -1.870101554950871E-01
  -1.979504869085341E-03  3.231960470902487E-03  3.764918139423925E-05
